[{"OBJECT_ID":"1978-014C","OBJECT_NAME":"KYOKKO 1 DEB","NORAD_CAT_ID":"12329","OBJECT_TYPE":"DEBRIS","PERIOD":"133.399","INCLINATION":"65.2750","ECCENTRICITY":"0.18892610","MEAN_MOTION":"10.79468930","TLE_LINE1":"1 12329U 78014C   21272.18314333 -.00000111  00000-0 -82717-4 0  9991","TLE_LINE2":"2 12329  65.2750 196.3601 1889261 248.4714  90.5068 10.79468930717016"},{"OBJECT_ID":"1978-014D","OBJECT_NAME":"KYOKKO 1 DEB","NORAD_CAT_ID":"12330","OBJECT_TYPE":"DEBRIS","PERIOD":"133.637","INCLINATION":"65.3788","ECCENTRICITY":"0.18906230","MEAN_MOTION":"10.77543904","TLE_LINE1":"1 12330U 78014D   21271.46946373 -.00000118  00000-0 -10033-3 0  9996","TLE_LINE2":"2 12330  65.3788 353.1430 1890623  68.2219 310.8700 10.77543904480881"},{"OBJECT_ID":"1978-014E","OBJECT_NAME":"KYOKKO 1 DEB","NORAD_CAT_ID":"12331","OBJECT_TYPE":"DEBRIS","PERIOD":"131.400","INCLINATION":"64.8225","ECCENTRICITY":"0.18169050","MEAN_MOTION":"10.95890885","TLE_LINE1":"1 12331U 78014E   21271.21670380  .00000133  00000-0  19154-3 0  9990","TLE_LINE2":"2 12331  64.8225 341.8962 1816905 340.5698  13.3777 10.95890885719364"},{"OBJECT_ID":"1978-014F","OBJECT_NAME":"KYOKKO 1 DEB","NORAD_CAT_ID":"12406","OBJECT_TYPE":"DEBRIS","PERIOD":"132.106","INCLINATION":"65.8877","ECCENTRICITY":"0.18185590","MEAN_MOTION":"10.90033409","TLE_LINE1":"1 12406U 78014F   21271.36194784  .00000284  00000-0  40511-3 0  9996","TLE_LINE2":"2 12406  65.8877 145.4661 1818559  91.6314 289.2579 10.90033409711622"},{"OBJECT_ID":"1976-077DJ","OBJECT_NAME":"DELTA 1 DEB","NORAD_CAT_ID":"12529","OBJECT_TYPE":"DEBRIS","PERIOD":"128.233","INCLINATION":"103.4010","ECCENTRICITY":"0.09369170","MEAN_MOTION":"11.22956824","TLE_LINE1":"1 12529U 76077DJ  21272.24787625  .00025884  00000-0  30759+0 0  9991","TLE_LINE2":"2 12529 103.4010 193.5932 0936917  14.0285 348.4944 11.22956824639900"},{"OBJECT_ID":"1977-068E","OBJECT_NAME":"COSMOS 931 DEB","NORAD_CAT_ID":"12815","OBJECT_TYPE":"DEBRIS","PERIOD":"715.657","INCLINATION":"69.2699","ECCENTRICITY":"0.56956560","MEAN_MOTION":"2.01213727","TLE_LINE1":"1 12815U 77068E   21269.76346434 -.00000578  00000-0  00000+0 0  9992","TLE_LINE2":"2 12815  69.2699  15.6732 5695656   3.4225 347.4303  2.01213727117088"},{"OBJECT_ID":"1980-057E","OBJECT_NAME":"COSMOS 1191 DEB","NORAD_CAT_ID":"12817","OBJECT_TYPE":"DEBRIS","PERIOD":"720.612","INCLINATION":"64.4873","ECCENTRICITY":"0.65825140","MEAN_MOTION":"1.99830135","TLE_LINE1":"1 12817U 80057E   21271.45847708  .00000837  00000-0  00000+0 0  9992","TLE_LINE2":"2 12817  64.4873 198.8386 6582514  42.6999 352.8315  1.99830135214773"},{"OBJECT_ID":"1980-057F","OBJECT_NAME":"COSMOS 1191 DEB","NORAD_CAT_ID":"12834","OBJECT_TYPE":"DEBRIS","PERIOD":"718.965","INCLINATION":"65.7955","ECCENTRICITY":"0.58607730","MEAN_MOTION":"2.00287983","TLE_LINE1":"1 12834U 80057F   21268.20355715 -.00000249  00000-0  00000-0 0  9991","TLE_LINE2":"2 12834  65.7955 238.2769 5860773  46.2736 349.3311  2.00287983206728"},{"OBJECT_ID":"1977-012H","OBJECT_NAME":"TANSEI 3 DEB","NORAD_CAT_ID":"12857","OBJECT_TYPE":"DEBRIS","PERIOD":"133.618","INCLINATION":"66.2990","ECCENTRICITY":"0.16940260","MEAN_MOTION":"10.77699904","TLE_LINE1":"1 12857U 77012H   21271.48111486 -.00000420  00000-0 -11687-2 0  9999","TLE_LINE2":"2 12857  66.2990 333.1432 1694026  73.4328 316.7340 10.77699904585982"},{"OBJECT_ID":"1981-031E","OBJECT_NAME":"COSMOS 1261 DEB","NORAD_CAT_ID":"12892","OBJECT_TYPE":"DEBRIS","PERIOD":"719.529","INCLINATION":"64.3524","ECCENTRICITY":"0.65891900","MEAN_MOTION":"2.00131017","TLE_LINE1":"1 12892U 81031E   21272.07576676 -.00000395  00000-0  00000+0 0  9990","TLE_LINE2":"2 12892  64.3524 306.0809 6589190  33.6836 354.6650  2.00131017224913"},{"OBJECT_ID":"1981-031F","OBJECT_NAME":"COSMOS 1261 DEB","NORAD_CAT_ID":"12893","OBJECT_TYPE":"DEBRIS","PERIOD":"715.912","INCLINATION":"64.8356","ECCENTRICITY":"0.67288020","MEAN_MOTION":"2.01142110","TLE_LINE1":"1 12893U 81031F   21271.14893230 -.00000927  00000-0  00000-0 0  9998","TLE_LINE2":"2 12893  64.8356 181.7598 6728802  40.2971 353.7960  2.01142110277452"},{"OBJECT_ID":"1981-031G","OBJECT_NAME":"COSMOS 1261 DEB","NORAD_CAT_ID":"12894","OBJECT_TYPE":"DEBRIS","PERIOD":"716.896","INCLINATION":"69.3307","ECCENTRICITY":"0.57466220","MEAN_MOTION":"2.00865937","TLE_LINE1":"1 12894U 81031G   21270.75811208 -.00000358  00000-0  00000-0 0  9998","TLE_LINE2":"2 12894  69.3307 190.3810 5746622  35.1517 357.2229  2.00865937267218"},{"OBJECT_ID":"1977-068F","OBJECT_NAME":"COSMOS 931 DEB","NORAD_CAT_ID":"12906","OBJECT_TYPE":"DEBRIS","PERIOD":"715.815","INCLINATION":"62.6446","ECCENTRICITY":"0.72758840","MEAN_MOTION":"2.01169210","TLE_LINE1":"1 12906U 77068F   21270.89201574  .00000201  00000-0  00000-0 0  9997","TLE_LINE2":"2 12906  62.6446 144.8485 7275884  46.7997 354.5830  2.01169210301650"},{"OBJECT_ID":"1978-083E","OBJECT_NAME":"COSMOS 1030 DEB","NORAD_CAT_ID":"12907","OBJECT_TYPE":"DEBRIS","PERIOD":"718.837","INCLINATION":"63.1193","ECCENTRICITY":"0.66595790","MEAN_MOTION":"2.00323471","TLE_LINE1":"1 12907U 78083E   21269.62817973  .00000549  00000-0  00000-0 0  9996","TLE_LINE2":"2 12907  63.1193 239.6477 6659579  44.8449 352.6730  2.00323471299954"},{"OBJECT_ID":"1981-016F","OBJECT_NAME":"COSMOS 1247 DEB","NORAD_CAT_ID":"12984","OBJECT_TYPE":"DEBRIS","PERIOD":"710.563","INCLINATION":"66.7121","ECCENTRICITY":"0.66197740","MEAN_MOTION":"2.02656319","TLE_LINE1":"1 12984U 81016F   21270.94293989 -.00000201  00000-0  00000-0 0  9999","TLE_LINE2":"2 12984  66.7121 138.4694 6619774  21.0142 356.9394  2.02656319295047"},{"OBJECT_ID":"1981-016H","OBJECT_NAME":"COSMOS 1247 DEB","NORAD_CAT_ID":"12992","OBJECT_TYPE":"DEBRIS","PERIOD":"711.067","INCLINATION":"66.6763","ECCENTRICITY":"0.66200250","MEAN_MOTION":"2.02512477","TLE_LINE1":"1 12992U 81016H   21270.47985310 -.00000408  00000-0  00000-0 0  9991","TLE_LINE2":"2 12992  66.6763 144.2834 6620025  22.8449 356.6396  2.02512477196885"},{"OBJECT_ID":"1981-071E","OBJECT_NAME":"COSMOS 1285 DEB","NORAD_CAT_ID":"12993","OBJECT_TYPE":"DEBRIS","PERIOD":"727.742","INCLINATION":"66.6755","ECCENTRICITY":"0.61110940","MEAN_MOTION":"1.97872223","TLE_LINE1":"1 12993U 81071E   21271.12661510 -.00000218  00000-0  00000-0 0  9998","TLE_LINE2":"2 12993  66.6755 215.5530 6111094  39.2068  18.7100  1.97872223204118"},{"OBJECT_ID":"1977-092J","OBJECT_NAME":"EKRAN 2 DEB","NORAD_CAT_ID":"12996","OBJECT_TYPE":"DEBRIS","PERIOD":"1439.552","INCLINATION":"8.6434","ECCENTRICITY":"0.00211200","MEAN_MOTION":"1.00031134","TLE_LINE1":"1 12996U 77092J   21271.42619116 -.00000189  00000-0  00000-0 0  9994","TLE_LINE2":"2 12996   8.6434 297.3800 0021120 232.3671 267.7498  1.00031134 67271"},{"OBJECT_ID":"1977-012J","OBJECT_NAME":"TANSEI 3 DEB","NORAD_CAT_ID":"13133","OBJECT_TYPE":"DEBRIS","PERIOD":"132.352","INCLINATION":"65.8375","ECCENTRICITY":"0.16580240","MEAN_MOTION":"10.88010426","TLE_LINE1":"1 13133U 77012J   21272.27827433  .00000084  00000-0  33086-3 0  9993","TLE_LINE2":"2 13133  65.8375 233.6814 1658024 150.9849 219.4483 10.88010426757152"},{"OBJECT_ID":"1976-023K","OBJECT_NAME":"LES 8 9\/SOL 11A B DEB *","NORAD_CAT_ID":"13753","OBJECT_TYPE":"DEBRIS","PERIOD":"1420.921","INCLINATION":"9.0233","ECCENTRICITY":"0.00017080","MEAN_MOTION":"1.01342751","TLE_LINE1":"1 13753U 76023K   21271.38103333  .00000018  00000-0  00000-0 0  9993","TLE_LINE2":"2 13753   9.0233 301.4117 0001708  41.7779  12.0524  1.01342751105055"},{"OBJECT_ID":"1981-088G","OBJECT_NAME":"SL-6 DEB","NORAD_CAT_ID":"13904","OBJECT_TYPE":"DEBRIS","PERIOD":"262.649","INCLINATION":"62.8167","ECCENTRICITY":"0.48650270","MEAN_MOTION":"5.48261046","TLE_LINE1":"1 13904U 81088G   21265.59624016  .00000001  00000-0  46224-4 0  9994","TLE_LINE2":"2 13904  62.8167  76.9313 4865027 262.4953  41.9576  5.48261046571361"},{"OBJECT_ID":"1965-108U","OBJECT_NAME":"TITAN 3C TRANSTAGE DEB","NORAD_CAT_ID":"13906","OBJECT_TYPE":"DEBRIS","PERIOD":"519.294","INCLINATION":"26.3409","ECCENTRICITY":"0.67483930","MEAN_MOTION":"2.77299304","TLE_LINE1":"1 13906U 65108U   21272.39659786 -.00000085  00000-0  46825-3 0  9998","TLE_LINE2":"2 13906  26.3409 299.1660 6748393  41.8810 357.2270  2.77299304295511"},{"OBJECT_ID":"1981-088H","OBJECT_NAME":"SL-6 DEB","NORAD_CAT_ID":"13908","OBJECT_TYPE":"DEBRIS","PERIOD":"264.897","INCLINATION":"62.8151","ECCENTRICITY":"0.48061150","MEAN_MOTION":"5.43607182","TLE_LINE1":"1 13908U 81088H   21265.33648600 -.00000358  00000-0 -22040-2 0  9990","TLE_LINE2":"2 13908  62.8151 316.6695 4806115 259.9992  44.5642  5.43607182549966"},{"OBJECT_ID":"1981-088J","OBJECT_NAME":"SL-6 DEB","NORAD_CAT_ID":"13909","OBJECT_TYPE":"DEBRIS","PERIOD":"250.286","INCLINATION":"63.5331","ECCENTRICITY":"0.45021970","MEAN_MOTION":"5.75340762","TLE_LINE1":"1 13909U 81088J   21272.43438985  .00001546  00000-0  18734-1 0  9995","TLE_LINE2":"2 13909  63.5331 324.0524 4502197 294.4876  32.1250  5.75340762568194"},{"OBJECT_ID":"1981-088L","OBJECT_NAME":"SL-6 DEB","NORAD_CAT_ID":"13911","OBJECT_TYPE":"DEBRIS","PERIOD":"243.168","INCLINATION":"63.2663","ECCENTRICITY":"0.45098350","MEAN_MOTION":"5.92182696","TLE_LINE1":"1 13911U 81088L   21249.11569969 -.00000268  00000-0 -13070-2 0  9995","TLE_LINE2":"2 13911  63.2663 170.5910 4509835 202.4349 129.3135  5.92182696 10030"},{"OBJECT_ID":"1965-108W","OBJECT_NAME":"TITAN 3C TRANSTAGE DEB","NORAD_CAT_ID":"13957","OBJECT_TYPE":"DEBRIS","PERIOD":"516.467","INCLINATION":"26.3630","ECCENTRICITY":"0.67508660","MEAN_MOTION":"2.78817659","TLE_LINE1":"1 13957U 65108W   21270.34223829  .00000082  00000-0  11872-2 0  9991","TLE_LINE2":"2 13957  26.3630 269.9135 6750866  55.8002 355.2589  2.78817659338936"},{"OBJECT_ID":"1981-071F","OBJECT_NAME":"COSMOS 1285 DEB","NORAD_CAT_ID":"13961","OBJECT_TYPE":"DEBRIS","PERIOD":"726.863","INCLINATION":"69.6200","ECCENTRICITY":"0.60274260","MEAN_MOTION":"1.98111674","TLE_LINE1":"1 13961U 81071F   21272.16718327 -.00000318  00000-0  00000+0 0  9998","TLE_LINE2":"2 13961  69.6200 171.0405 6027426  27.3823 354.5201  1.98111674288157"}]